NORAD_CAT_ID,OBJECT_NAME,OBJECT_TYPE,EPOCH,MEAN_MOTION,ECCENTRICITY,INCLINATION,RA_OF_ASC_NODE,ARG_OF_PERICENTER,MEAN_ANOMALY,BSTAR,MEAN_MOTION_DOT,MEAN_MOTION_DDOT,TLE_LINE0,TLE_LINE1,TLE_LINE2,SEMIMAJOR_AXIS,PERIOD,APOGEE,PERIGEE,DECAYED
53988.0,STARLINK-5113,PAYLOAD,2022-12-23 07:47:39,15.08820722,0.0001496,53.219,77.1908,67.025,293.09,6.3122e-05,7.16e-06,0.0,0 STARLINK-5113,1 53988U 22125AA  22357.32476725  .00000716  00000-0  63122-4 0  9992,2 53988  53.2190  77.1908 0001496  67.0250 293.0900 15.08820722 12547,6917.939,95.439,540.839,538.769,0.0
53988.0,STARLINK-5113,PAYLOAD,2022-12-23 12:33:49,15.08824738,0.0001439,53.2189,76.2984,61.4332,298.6805,-2.2321e-05,-6.43e-06,0.0,0 STARLINK-5113,1 53988U 22125AA  22357.52349020 -.00000643  00000-0 -22321-4 0  9998,2 53988  53.2189  76.2984 0001439  61.4332 298.6805 15.08824738 12495,6917.927,95.439,540.788,538.797,0.0
53988.0,STARLINK-5113,PAYLOAD,2022-12-23 14:09:12,15.08823385,0.0001426999999999,53.2187,76.0005,63.2024,296.9114,2.7882e-05,1.56e-06,0.0,0 STARLINK-5113,1 53988U 22125AA  22357.58972989  .00000156  00000-0  27882-4 0  9994,2 53988  53.2187  76.0005 0001427  63.2024 296.9114 15.08823385 12503,6917.931,95.439,540.783,538.809,0.0
53988.0,STARLINK-5113,PAYLOAD,2022-12-23 22:06:08,15.08828702,0.0001531999999999,53.2197,74.5146,66.2542,293.8611,0.00012475,1.697e-05,0.0,0 STARLINK-5113,1 53988U 22125AA  22357.92092654  .00001697  00000-0  12475-3 0  9996,2 53988  53.2197  74.5146 0001532  66.2542 293.8611 15.08828702 12638,6917.915,95.438,540.84,538.72,0.0
53988.0,STARLINK-5113,PAYLOAD,2022-12-24 12:24:35,15.08841943,0.0001498,53.2193,71.8376,63.2502,296.8643,5.7036e-05,6.2e-06,0.0,0 STARLINK-5113,1 53988U 22125AA  22358.51708245  .00000620  00000-0  57036-4 0  9990,2 53988  53.2193  71.8376 0001498  63.2502 296.8643 15.08841943 12644,6917.874,95.437,540.776,538.703,0.0
53988.0,STARLINK-5113,PAYLOAD,2022-12-24 15:35:22,15.08839756,0.0001453999999999,53.2187,71.2423,58.5502,301.5632,3.541e-05,2.76e-06,0.0,0 STARLINK-5113,1 53988U 22125AA  22358.64956433  .00000276  00000-0  35410-4 0  9997,2 53988  53.2187  71.2423 0001454  58.5502 301.5632 15.08839756 12745,6917.880999999999,95.438,540.752,538.74,0.0
53988.0,STARLINK-5113,PAYLOAD,2022-12-24 21:56:54,15.08848529,0.0001421,53.2187,70.0529,58.4416,301.6715,6.4664e-05,7.42e-06,0.0,0 STARLINK-5113,1 53988U 22125AA  22358.91451710  .00000742  00000-0  64664-4 0  9996,2 53988  53.2187  70.0529 0001421  58.4416 301.6715 15.08848529 12781,6917.854,95.437,540.702,538.736,0.0
53988.0,STARLINK-5113,PAYLOAD,2022-12-25 05:53:50,15.08836977,0.0001357,53.219,68.5656,63.2065,296.9066,9.4745e-05,1.22e-05,0.0,0 STARLINK-5113,1 53988U 22125AA  22359.24572283  .00001220  00000-0  94745-4 0  9997,2 53988  53.2190  68.5656 0001357  63.2065 296.9066 15.08836977 12835,6917.89,95.438,540.693,538.816,0.0
53988.0,STARLINK-5113,PAYLOAD,2022-12-25 13:50:47,15.08826289,0.0001423,53.2186,67.0795,57.1222,302.9907,3.9211000000000005e-06,-2.26e-06,0.0,0 STARLINK-5113,1 53988U 22125AA  22359.57693450 -.00000226  00000-0  39211-5 0  9997,2 53988  53.2186  67.0795 0001423  57.1222 302.9907 15.08826289 12881,6917.922,95.438,540.7719999999998,538.803,0.0
53988.0,STARLINK-5113,PAYLOAD,2022-12-25 21:47:42,15.08835565,0.0001374,53.2186,65.5928,57.8513,302.2612,-2.3427e-05,-6.61e-06,0.0,0 STARLINK-5113,1 53988U 22125AA  22359.90813086 -.00000661  00000-0 -23427-4 0  9998,2 53988  53.2186  65.5928 0001374  57.8513 302.2612 15.08835565 12857,6917.894,95.438,540.7090000000002,538.808,0.0
53988.0,STARLINK-5113,PAYLOAD,2022-12-26 10:30:48,15.08831617,0.0001421,53.2189,63.2138,58.8953,301.2178,-6.691399999999999e-05,-1.352e-05,0.0,0 STARLINK-5113,1 53988U 22125AA  22360.43805659 -.00001352  00000-0 -66914-4 0  9991,2 53988  53.2189  63.2138 0001421  58.8953 301.2178 15.08831617 12939,6917.906,95.438,540.754,538.788,0.0
53988.0,STARLINK-5113,PAYLOAD,2022-12-27 10:21:32,15.08855602,0.0001498,53.2192,58.7528,60.9781,299.1361,0.00014748,2.061e-05,0.0,0 STARLINK-5113,1 53988U 22125AA  22361.43163140  .00002061  00000-0  14748-3 0  9997,2 53988  53.2192  58.7528 0001498  60.9781 299.1361 15.08855602 13167,6917.833000000001,95.437,540.734,538.661,0.0
53988.0,STARLINK-5113,PAYLOAD,2022-12-27 13:32:19,15.08852905,0.0001561999999999,53.2198,58.1578,69.191,290.9249,9.2099e-05,1.179e-05,0.0,0 STARLINK-5113,1 53988U 22125AA  22361.56411365  .00001179  00000-0  92099-4 0  9991,2 53988  53.2198  58.1578 0001562  69.1910 290.9249 15.08852905 13100,6917.840999999999,95.437,540.7869999999998,538.625,0.0
53988.0,STARLINK-5113,PAYLOAD,2022-12-28 13:23:06,15.08843616,0.0001635,53.2199,53.6994,63.7837,296.3323,0.00010268,1.347e-05,0.0,0 STARLINK-5113,1 53988U 22125AA  22362.55771469  .00001347  00000-0  10268-3 0  9999,2 53988  53.2199  53.6994 0001635  63.7837 296.3323 15.08843616 13250,6917.869000000002,95.437,540.865,538.6030000000002,0.0
53988.0,STARLINK-5113,PAYLOAD,2022-12-29 05:16:59,15.08828092,0.0001594,53.2191,50.727,43.907,316.2048,-0.00019236,-3.347e-05,0.0,0 STARLINK-5113,1 53988U 22125AA  22363.22013497 -.00003347  00000-0 -19236-3 0  9992,2 53988  53.2191  50.7270 0001594  43.9070 316.2048 15.08828092 13437,6917.917,95.438,540.885,538.679,0.0
53988.0,STARLINK-5113,PAYLOAD,2022-12-30 03:32:24,15.0881406,0.0001753,53.2197,46.5672,34.6742,325.4365,-0.00013235,-2.392e-05,0.0,0 STARLINK-5113,1 53988U 22125AA  22364.14750819 -.00002392  00000-0 -13235-3 0  9992,2 53988  53.2197  46.5672 0001753  34.6742 325.4365 15.08814060 13571,6917.96,95.439,541.0369999999998,538.612,0.0
53988.0,STARLINK-5113,PAYLOAD,2022-12-30 09:53:56,15.08828871,0.0001573,53.219,45.3741,59.5349,300.5799,-3.1695e-05,-7.92e-06,0.0,0 STARLINK-5113,1 53988U 22125AA  22364.41245820 -.00000792  00000-0 -31695-4 0  9996,2 53988  53.2190  45.3741 0001573  59.5349 300.5799 15.08828871 13612,6917.9140000000025,95.438,540.868,538.691,0.0
53988.0,STARLINK-5113,PAYLOAD,2022-12-30 19:26:14,15.08843018,0.0001541999999999,53.219,43.5897,58.0259,302.0883,5.1799e-05,5.37e-06,0.0,0 STARLINK-5113,1 53988U 22125AA  22364.80988852  .00000537  00000-0  51799-4 0  9990,2 53988  53.2190  43.5897 0001542  58.0259 302.0883 15.08843018 13671,6917.871,95.437,540.803,538.669,0.0
53988.0,STARLINK-5113,PAYLOAD,2022-12-31 09:44:41,15.08849492,0.0001614,53.2189,40.9114,60.6495,299.4659,0.00029032,4.337e-05,0.0,0 STARLINK-5113,1 53988U 22125AA  22365.40603668  .00004337  00000-0  29032-3 0  9992,2 53988  53.2189  40.9114 0001614  60.6495 299.4659 15.08849492 13765,6917.851,95.437,540.8330000000002,538.6,0.0
53988.0,STARLINK-5113,PAYLOAD,2022-12-31 12:55:27,15.08847499,0.0001656,53.2191,40.3179,58.4763,301.6391,0.00027682,4.121e-05,0.0,0 STARLINK-5113,1 53988U 22125AA  22365.53851821  .00004121  00000-0  27682-3 0  9992,2 53988  53.2191  40.3179 0001656  58.4763 301.6391 15.08847499 13700,6917.857,95.437,540.868,538.577,0.0
53988.0,STARLINK-5113,PAYLOAD,2022-12-31 19:17:01,15.08840794,0.0001675999999999,53.2189,39.1285,56.1401,303.9751,0.00020825,3.028e-05,0.0,0 STARLINK-5113,1 53988U 22125AA  22365.80348486  .00003028  00000-0  20825-3 0  9997,2 53988  53.2189  39.1285 0001676  56.1401 303.9751 15.08840794 13747,6917.878000000002,95.438,540.9019999999998,538.5840000000002,0.0
53988.0,STARLINK-5113,PAYLOAD,2023-01-01 11:10:54,15.08824546,0.0001681,53.2199,36.1555,61.479,298.6371,-4.2519e-05,-9.64e-06,0.0,0 STARLINK-5113,1 53988U 22125AA  23001.46590676 -.00000964  00000-0 -42519-4 0  9990,2 53988  53.2199  36.1555 0001681  61.4790 298.6371 15.08824546 13926,6917.928000000001,95.439,540.956,538.63,0.0
53988.0,STARLINK-5113,PAYLOAD,2023-01-01 19:07:50,15.08824765,0.0001554999999999,53.2195,34.668,54.0392,306.0744,-0.00013623,-2.455e-05,0.0,0 STARLINK-5113,1 53988U 22125AA  23001.79711137 -.00002455  00000-0 -13623-3 0  9993,2 53988  53.2195  34.6680 0001555  54.0392 306.0744 15.08824765 13897,6917.927,95.439,540.868,538.716,0.0
53988.0,STARLINK-5113,PAYLOAD,2023-01-02 11:01:40,15.08850656,0.0001641999999999,53.2193,31.6936,57.8916,302.2235,-0.00011524,-2.122e-05,0.0,0 STARLINK-5113,1 53988U 22125AA  23002.45949534 -.00002122  00000-0 -11524-3 0  9990,2 53988  53.2193  31.6936 0001642  57.8916 302.2235 15.08850656 14078,6917.848000000001,95.437,540.849,538.577,0.0
53988.0,STARLINK-5113,PAYLOAD,2023-01-02 18:58:35,15.08847841,0.0001754999999999,53.2197,30.2073,55.7358,304.3801,-2.4501e-05,-6.78e-06,0.0,0 STARLINK-5113,1 53988U 22125AA  23002.79069275 -.00000678  00000-0 -24501-4 0  9996,2 53988  53.2197  30.2073 0001755  55.7358 304.3801 15.08847841 14042,6917.856,95.437,540.936,538.507,0.0
53988.0,STARLINK-5113,PAYLOAD,2023-01-03 07:41:41,15.0883598,0.0001729,53.2201,27.8278,55.9255,304.1901,7.450399999999999e-05,8.98e-06,0.0,0 STARLINK-5113,1 53988U 22125AA  23003.32061664  .00000898  00000-0  74504-4 0  9990,2 53988  53.2201  27.8278 0001729  55.9255 304.1901 15.08835980 14204,6917.893,95.438,540.9540000000002,538.562,0.0
53988.0,STARLINK-5113,PAYLOAD,2023-01-03 18:49:23,15.08828282,0.0001603,53.2198,25.7462,59.1028,301.0122,9.3632e-05,1.202e-05,0.0,0 STARLINK-5113,1 53988U 22125AA  23003.78430273  .00001202  00000-0  93632-4 0  9999,2 53988  53.2198  25.7462 0001603  59.1028 301.0122 15.08828282 14271,6917.916,95.438,540.89,538.672,0.0
53988.0,STARLINK-5113,PAYLOAD,2023-01-04 01:10:56,15.08837557,0.0001872,53.2208,24.5573,55.5881,304.5288,7.3581e-05,8.83e-06,0.0,0 STARLINK-5113,1 53988U 22125AA  23004.04925952  .00000883  00000-0  73581-4 0  9997,2 53988  53.2208  24.5573 0001872  55.5881 304.5288 15.08837557 14319,6917.888000000001,95.438,541.048,538.4580000000002,0.0
53988.0,STARLINK-5113,PAYLOAD,2023-01-04 07:32:28,15.08844855,0.0001904,53.2197,23.369,54.8673,305.2497,0.00011697,1.574e-05,0.0,0 STARLINK-5113,1 53988U 22125AA  23004.31421308  .00001574  00000-0  11697-3 0  9990,2 53988  53.2197  23.3690 0001904  54.8673 305.2497 15.08844855 14353,6917.866,95.437,541.048,538.413,0.0
